ORBCOMM FM33            
1 25983U 99065D   24331.86579021  .00003183  00000+0  10680-2 0  9998
2 25983  45.0277 240.1742 0008009 117.1704 242.9962 14.38952896306910
ORBCOMM FM36            
1 25984U 99065E   24331.35532455  .00004364  00000+0  15041-2 0  9991
2 25984  45.0398 331.4012 0004678 335.7466  24.3162 14.37034869305238
ORBCOMM FM35            
1 25985U 99065F   24332.31342883  .00003131  00000+0  11106-2 0  9992
2 25985  45.0399 330.4218 0001402  93.0263 267.0746 14.36229581305946
ORBCOMM FM34            
1 25986U 99065G   24332.00660528  .00002887  00000+0  10274-2 0  9990
2 25986  45.0399 332.4086 0003364  14.4722 345.6222 14.36258472305862
ORBCOMM FM38            
1 33060U 08031A   24332.15856019  .00004806  00000+0  66150-3 0  9991
2 33060  48.4390 196.9287 0005910 244.5592 115.4711 14.79629061884803
ORBCOMM FM41            
1 33061U 08031B   24331.99925812  .00004834  00000+0  67066-3 0  9999
2 33061  48.4426 204.8119 0005101 230.4799 264.6834 14.79275313884723
ORBCOMM FM29            
1 33062U 08031C   24331.84897594  .00005343  00000+0  73779-3 0  9993
2 33062  48.4382 213.5229 0006761 229.7167 221.7976 14.79299214884173
ORBCOMM FM39            
1 33063U 08031D   24332.42054538  .00005044  00000+0  71848-3 0  9995
2 33063  48.4397 233.0080 0007555 208.5990 151.4511 14.78064281884350
